{"type":"FeatureCollection","features":[{"type":"Feature","id":"layer_parcel_all.fid--7c5a1db7_197c2731403_-1dc2","geometry":{"type":"MultiPolygon","coordinates":[[[[3957045.1679,3902991.8453],[3957054.8674,3903022.453],[3957056.9517,3903025.5278],[3957135.9924,3903167.5201],[3957131.963,3903200.1439],[3957139.2355,3903200.9059],[3957143.981,3903165.3344],[3957082.1446,3903054.0446],[3957061.3456,3903018.7231],[3957051.8772,3902988.8814],[3957019.6847,3902938.1747],[3957012.6442,3902899.0139],[3957004.3079,3902892.9831],[3957011.6299,3902939.5973],[3957045.1679,3902991.8453]]]]},"geometry_name":"shape","properties":{"objectid":1,"parcel_id":66,"gush_num":14372,"gush_suffix":null,"parcel":10,"legal_area":1704,"pnumtype":0,"pnumtype_text":" ","status":6,"status_text":"מוסדר","locality_id":2063,"locality_name":"דישון","reg_mun_id":55,"reg_mun_name":"מבואות החרמון","county_id":21,"county_name":"צפת","region_id":2,"region_name":"הצפון","wp":10055,"talar_number":0,"talar_year":0,"sys_date":"1999-03-22 15:05:12","id":"14372--10","note":"הנתון שטח רשום כאן אינו מהווה אסמכתה. לאסמכתה חוקית לשטח הרשום של חלקה יש לפנות ללשכות המרשם במשרד המשפטים.","shape_length":579.575443429488,"shape_area":1829.43161966885},"bbox":[3957004.3079,3902892.9831,3957143.981,3903200.9059]},{"type":"Feature","id":"layer_parcel_all.fid--7c5a1db7_197c2731403_-1dc1","geometry":{"type":"MultiPolygon","coordinates":[[[[3956907.3345,3902192.9361],[3956913.3553,3902189.8197],[3956898.2,3902125.4298],[3956883.0108,3901524.9226],[3956518.5052,3901495.8003],[3956467.526,3901491.7265],[3956459.0179,3901491.0739],[3956448.1701,3901527.3602],[3956383.0277,3901618.1759],[3956365.272,3901760.1313],[3956459.9264,3901906.814],[3956519.1121,3902024.5743],[3956572.7218,3902174.3864],[3956567.5567,3902199.1233],[3956516.1306,3902245.2217],[3956436.4838,3902300.8442],[3956430.6095,3902301.6891],[3956389.341,3902488.8756],[3956390.1354,3902551.1446],[3956386.1832,3902701.7481],[3956341.0731,3902806.05],[3956486.1633,3903087.3481],[3956523.3196,3903159.3772],[3956526.4742,3903161.9059],[3956535.1351,3903128.5153],[3956549.8127,3903070.4217],[3956568.6224,3903022.1911],[3956591.3538,3902966.2944],[3956664.0162,3902861.8191],[3956674.4642,3902798.4386],[3956692.2795,3902749.4578],[3956732.4827,3902647.6344],[3956778.5545,3902612.0566],[3956826.0909,3902603.51],[3956823.3988,3902568.8706],[3956792.595,3902419.0656],[3956885.4809,3902309.0314],[3956882.531,3902277.8154],[3956907.447,3902195.9835],[3956907.3345,3902192.9361]]]]},"geometry_name":"shape","properties":{"objectid":2,"parcel_id":67,"gush_num":14376,"gush_suffix":null,"parcel":2,"legal_area":417171,"pnumtype":0,"pnumtype_text":" ","status":6,"status_text":"מוסדר","locality_id":2063,"locality_name":"דישון","reg_mun_id":55,"reg_mun_name":"מבואות החרמון","county_id":21,"county_name":"צפת","region_id":2,"region_name":"הצפון","wp":10055,"talar_number":0,"talar_year":0,"sys_date":"1999-03-22 15:05:12","id":"14376--2","note":"הנתון שטח רשום כאן אינו מהווה אסמכתה. לאסמכתה חוקית לשטח הרשום של חלקה יש לפנות ללשכות המרשם במשרד המשפטים.","shape_length":3421.3693378493,"shape_area":417563.075357331},"bbox":[3956341.0731,3901491.0739,3956913.3553,3903161.9059]},{"type":"Feature","id":"layer_parcel_all.fid--7c5a1db7_197c2731403_-1dc0","geometry":{"type":"MultiPolygon","coordinates":[[[[3953660.8992,3902714.5232],[3953622.0831,3902698.4214],[3953581.1304,3902697.4127],[3953554.1578,3902695.1585],[3953502.9669,3902727.7062],[3953470.079,3902736.729],[3953427.6099,3902737.6195],[3953419.6322,3902733.8542],[3953318.4621,3902816.6876],[3953310.9969,3902739.7841],[3953270.861,3902675.3923],[3953261.8665,3902674.0881],[3953183.9562,3902680.2971],[3953098.9502,3902664.7645],[3953021.3712,3902661.3798],[3952943.4476,3902641.9572],[3952896.8177,3902892.9267],[3952873.5961,3903027.111],[3952869.934,3903048.4274],[3953038.9497,3903123.104],[3953074.2835,3903115.905],[3953076.4868,3903048.0887],[3953097.254,3903061.6882],[3953113.8104,3903068.4541],[3953129.2408,3903065.3223],[3953103.4708,3903016.7055],[3953115.6306,3902954.168],[3953151.9353,3902912.0682],[3953242.1057,3902974.8063],[3953261.3838,3902918.7113],[3953402.1675,3902795.6582],[3953686.5147,3902714.1637],[3953660.8992,3902714.5232]]]]},"geometry_name":"shape","properties":{"objectid":3,"parcel_id":68,"gush_num":14313,"gush_suffix":null,"parcel":3,"legal_area":109210,"pnumtype":0,"pnumtype_text":" ","status":6,"status_text":"מוסדר","locality_id":688,"locality_name":"עלמה","reg_mun_id":2,"reg_mun_name":"מרום הגליל","county_id":21,"county_name":"צפת","region_id":2,"region_name":"הצפון","wp":10002,"talar_number":0,"talar_year":0,"sys_date":"1999-03-22 15:05:12","id":"14313--3","note":"הנתון שטח רשום כאן אינו מהווה אסמכתה. לאסמכתה חוקית לשטח הרשום של חלקה יש לפנות ללשכות המרשם במשרד המשפטים.","shape_length":2079.63632339495,"shape_area":109039.597281406},"bbox":[3952869.934,3902641.9572,3953686.5147,3903123.104]},{"type":"Feature","id":"layer_parcel_all.fid--7c5a1db7_197c2731403_-1dbf","geometry":{"type":"MultiPolygon","coordinates":[[[[3957200.2219,3902337.1469],[3957293.2831,3902459.93],[3957337.2609,3902527.2691],[3957240.2364,3902580.8611],[3957227.6425,3902693.7708],[3957114.5637,3902792.1919],[3957083.9898,3902789.2671],[3957029.0826,3902850.1046],[3957009.2438,3902883.8592],[3957012.6442,3902899.0139],[3957019.6847,3902938.1747],[3957051.8772,3902988.8814],[3957061.3456,3903018.7231],[3957082.1446,3903054.0446],[3957086.8214,3903057.161],[3957182.4165,3902981.6471],[3957381.5818,3902831.3833],[3957554.2643,3901579.498],[3956883.0108,3901524.9226],[3956898.2,3902125.4298],[3957039.7974,3901938.9085],[3957141.2822,3901949.464],[3957178.5949,3902037.8439],[3957124.4356,3902196.689],[3957125.1132,3902197.9449],[3957146.7118,3902237.9748],[3957200.2219,3902337.1469]]]]},"geometry_name":"shape","properties":{"objectid":4,"parcel_id":69,"gush_num":14376,"gush_suffix":null,"parcel":8,"legal_area":369218,"pnumtype":0,"pnumtype_text":" ","status":6,"status_text":"מוסדר","locality_id":2063,"locality_name":"דישון","reg_mun_id":55,"reg_mun_name":"מבואות החרמון","county_id":21,"county_name":"צפת","region_id":2,"region_name":"הצפון","wp":10055,"talar_number":0,"talar_year":0,"sys_date":"1999-03-22 15:05:12","id":"14376--8","note":"הנתון שטח רשום כאן אינו מהווה אסמכתה. לאסמכתה חוקית לשטח הרשום של חלקה יש לפנות ללשכות המרשם במשרד המשפטים.","shape_length":3866.49579932896,"shape_area":369293.968160261},"bbox":[3956883.0108,3901524.9226,3957554.2643,3903057.161]},{"type":"Feature","id":"layer_parcel_all.fid--7c5a1db7_197c2731403_-1dbe","geometry":{"type":"MultiPolygon","coordinates":[[[[3954822.2703,3902206.9332],[3955136.9838,3902610.291],[3955350.1323,3902853.8659],[3955421.8095,3902936.8274],[3955582.4968,3902979.9632],[3955594.9455,3902948.6048],[3955635.1817,3902875.8185],[3955645.1651,3902847.5337],[3955660.1807,3902775.0292],[3955668.7481,3902735.3388],[3955679.7202,3902684.5398],[3955455.7066,3902142.2893],[3955132.679,3902157.5604],[3954989.4532,3902227.5975],[3954822.2703,3902206.9332]]]]},"geometry_name":"shape","properties":{"objectid":5,"parcel_id":70,"gush_num":14314,"gush_suffix":null,"parcel":4,"legal_area":268023,"pnumtype":0,"pnumtype_text":" ","status":6,"status_text":"מוסדר","locality_id":688,"locality_name":"עלמה","reg_mun_id":2,"reg_mun_name":"מרום הגליל","county_id":21,"county_name":"צפת","region_id":2,"region_name":"הצפון","wp":10002,"talar_number":0,"talar_year":0,"sys_date":"1999-03-22 15:05:12","id":"14314--4","note":"הנתון שטח רשום כאן אינו מהווה אסמכתה. לאסמכתה חוקית לשטח הרשום של חלקה יש לפנות ללשכות המרשם במשרד המשפטים.","shape_length":2228.6156642362,"shape_area":267371.843977041},"bbox":[3954822.2703,3902142.2893,3955679.7202,3902979.9632]},{"type":"Feature","id":"layer_parcel_all.fid--7c5a1db7_197c2731403_-1dbd","geometry":{"type":"MultiPolygon","coordinates":[[[[3953779.159,3902891.855],[3953955.7002,3902920.5349],[3954089.7494,3902928.315],[3954213.7598,3902898.0496],[3954240.5928,3902895.3879],[3954327.1962,3902832.4348],[3954283.9187,3902808.4987],[3954141.9326,3902807.1077],[3954020.9942,3902814.0542],[3953984.3615,3902811.4175],[3953933.6321,3902808.3007],[3953896.1484,3902804.3747],[3953861.4109,3902789.3145],[3953862.6096,3902795.2045],[3953789.3352,3902804.9499],[3953779.159,3902891.855]]]]},"geometry_name":"shape","properties":{"objectid":6,"parcel_id":71,"gush_num":14313,"gush_suffix":null,"parcel":8,"legal_area":37103,"pnumtype":0,"pnumtype_text":" ","status":6,"status_text":"מוסדר","locality_id":688,"locality_name":"עלמה","reg_mun_id":2,"reg_mun_name":"מרום הגליל","county_id":21,"county_name":"צפת","region_id":2,"region_name":"הצפון","wp":10002,"talar_number":0,"talar_year":0,"sys_date":"1999-03-22 15:05:12","id":"14313--8","note":"הנתון שטח רשום כאן אינו מהווה אסמכתה. לאסמכתה חוקית לשטח הרשום של חלקה יש לפנות ללשכות המרשם במשרד המשפטים.","shape_length":1021.18640276303,"shape_area":36932.6414783387},"bbox":[3953779.159,3902789.3145,3954327.1962,3902928.315]},{"type":"Feature","id":"layer_parcel_all.fid--7c5a1db7_197c2731403_-1dbc","geometry":{"type":"MultiPolygon","coordinates":[[[[3956792.595,3902419.0656],[3956823.3988,3902568.8706],[3956826.0909,3902603.51],[3956827.0459,3902607.7015],[3956879.5084,3902706.9604],[3957001.9444,3902887.7523],[3957004.3079,3902892.9831],[3957012.6442,3902899.0139],[3957009.2438,3902883.8592],[3956887.7254,3902703.8194],[3956882.4484,3902693.8668],[3956861.6122,3902654.5696],[3956832.8122,3902602.3014],[3956831.3367,3902567.5298],[3956800.8803,3902420.7821],[3956893.4497,3902310.4664],[3956890.8601,3902277.7219],[3956914.4038,3902195.1431],[3956913.3553,3902189.8197],[3956907.3345,3902192.9361],[3956907.447,3902195.9835],[3956882.531,3902277.8154],[3956885.4809,3902309.0314],[3956792.595,3902419.0656]]]]},"geometry_name":"shape","properties":{"objectid":7,"parcel_id":72,"gush_num":14376,"gush_suffix":null,"parcel":9,"legal_area":3984,"pnumtype":0,"pnumtype_text":" ","status":6,"status_text":"מוסדר","locality_id":2063,"locality_name":"דישון","reg_mun_id":55,"reg_mun_name":"מבואות החרמון","county_id":21,"county_name":"צפת","region_id":2,"region_name":"הצפון","wp":10055,"talar_number":0,"talar_year":0,"sys_date":"1999-03-22 15:05:12","id":"14376--9","note":"הנתון שטח רשום כאן אינו מהווה אסמכתה. לאסמכתה חוקית לשטח הרשום של חלקה יש לפנות ללשכות המרשם במשרד המשפטים.","shape_length":1346.10497615535,"shape_area":4398.08647983276},"bbox":[3956792.595,3902189.8197,3957012.6442,3902899.0139]},{"type":"Feature","id":"layer_parcel_all.fid--7c5a1db7_197c2731403_-1dbb","geometry":{"type":"MultiPolygon","coordinates":[[[[3957227.6425,3902693.7708],[3957240.2364,3902580.8611],[3957337.2609,3902527.2691],[3957293.2831,3902459.93],[3957217.8019,3902556.0533],[3957144.1073,3902605.663],[3957113.4861,3902609.5693],[3957072.4343,3902590.4631],[3956887.3795,3902690.2448],[3956882.4484,3902693.8668],[3956887.7254,3902703.8194],[3957009.2438,3902883.8592],[3957029.0826,3902850.1046],[3957083.9898,3902789.2671],[3957114.5637,3902792.1919],[3957227.6425,3902693.7708]]]]},"geometry_name":"shape","properties":{"objectid":8,"parcel_id":73,"gush_num":14376,"gush_suffix":null,"parcel":7,"legal_area":45309,"pnumtype":0,"pnumtype_text":" ","status":6,"status_text":"מוסדר","locality_id":2063,"locality_name":"דישון","reg_mun_id":55,"reg_mun_name":"מבואות החרמון","county_id":21,"county_name":"צפת","region_id":2,"region_name":"הצפון","wp":10055,"talar_number":0,"talar_year":0,"sys_date":"1999-03-22 15:05:12","id":"14376--7","note":"הנתון שטח רשום כאן אינו מהווה אסמכתה. לאסמכתה חוקית לשטח הרשום של חלקה יש לפנות ללשכות המרשם במשרד המשפטים.","shape_length":1120.54762501769,"shape_area":45067.9376069583},"bbox":[3956882.4484,3902459.93,3957337.2609,3902883.8592]},{"type":"Feature","id":"layer_parcel_all.fid--7c5a1db7_197c2731403_-1dba","geometry":{"type":"MultiPolygon","coordinates":[[[[3955136.9838,3902610.291],[3954327.1962,3902832.4348],[3954312.1957,3902876.7272],[3955350.1323,3902853.8659],[3955136.9838,3902610.291]]]]},"geometry_name":"shape","properties":{"objectid":9,"parcel_id":74,"gush_num":14314,"gush_suffix":null,"parcel":2,"legal_area":101788,"pnumtype":0,"pnumtype_text":" ","status":6,"status_text":"מוסדר","locality_id":688,"locality_name":"עלמה","reg_mun_id":2,"reg_mun_name":"מרום הגליל","county_id":21,"county_name":"צפת","region_id":2,"region_name":"הצפון","wp":10002,"talar_number":0,"talar_year":0,"sys_date":"1999-03-22 15:05:12","id":"14314--2","note":"הנתון שטח רשום כאן אינו מהווה אסמכתה. לאסמכתה חוקית לשטח הרשום של חלקה יש לפנות ללשכות המרשם במשרד המשפטים.","shape_length":1885.19721100962,"shape_area":101666.14729574},"bbox":[3954312.1957,3902610.291,3955350.1323,3902876.7272]},{"type":"Feature","id":"layer_parcel_all.fid--7c5a1db7_197c2731403_-1db9","geometry":{"type":"MultiPolygon","coordinates":[[[[3953824.1683,3902649.6221],[3953799.4662,3902670.1153],[3953755.2413,3902695.1099],[3953783.3231,3902698.3277],[3953829.4322,3902718.6418],[3953849.7304,3902741.3841],[3953861.4109,3902789.3145],[3953896.1484,3902804.3747],[3953933.6321,3902808.3007],[3953984.3615,3902811.4175],[3954020.9942,3902814.0542],[3954141.9326,3902807.1077],[3954283.9187,3902808.4987],[3954327.1962,3902832.4348],[3955136.9838,3902610.291],[3954822.2703,3902206.9332],[3954147.7532,3902124.5251],[3954145.8659,3902194.1937],[3954144.7071,3902228.3872],[3954092.6848,3902374.7902],[3954067.0197,3902412.2792],[3953950.1703,3902481.1349],[3953824.1683,3902649.6221]]]]},"geometry_name":"shape","properties":{"objectid":10,"parcel_id":75,"gush_num":14314,"gush_suffix":null,"parcel":3,"legal_area":421029,"pnumtype":0,"pnumtype_text":" ","status":6,"status_text":"מוסדר","locality_id":688,"locality_name":"עלמה","reg_mun_id":2,"reg_mun_name":"מרום הגליל","county_id":21,"county_name":"צפת","region_id":2,"region_name":"הצפון","wp":10002,"talar_number":0,"talar_year":0,"sys_date":"1999-03-22 15:05:12","id":"14314--3","note":"הנתון שטח רשום כאן אינו מהווה אסמכתה. לאסמכתה חוקית לשטח הרשום של חלקה יש לפנות ללשכות המרשם במשרד המשפטים.","shape_length":2847.74355616459,"shape_area":420719.661666208},"bbox":[3953755.2413,3902124.5251,3955136.9838,3902832.4348]}],"totalFeatures":1079893,"numberMatched":1079893,"numberReturned":10,"timeStamp":"2025-07-01T06:31:49.088Z","crs":{"type":"name","properties":{"name":"urn:ogc:def:crs:EPSG::3857"}},"bbox":[3952869.934,3901491.0739,3957554.2643,3903200.9059]}