{"type":"FeatureCollection","features":[{"type":"Feature","id":"layer_sub_gush_all.fid--7c5a1db7_197c2731403_-1ba0","geometry":{"type":"MultiPolygon","coordinates":[[[[3906977.1302,3729915.1729],[3906987.2633,3729972.1873],[3907027.1542,3730186.4761],[3907027.0925,3730191.0844],[3907026.9243,3730193.1467],[3907030.2323,3730203.3305],[3907025.3881,3730213.5741],[3907008.3873,3730253.1732],[3906969.5953,3730345.5227],[3906941.3025,3730411.8541],[3906928.7763,3730439.4535],[3906923.6879,3730457.7743],[3906925.9782,3730499.4276],[3906925.3627,3730510.4834],[3906923.3374,3730523.0081],[3907029.4883,3730730.2618],[3907052.1284,3730784.4673],[3907102.9918,3730843.3056],[3907126.135,3730904.8879],[3907156.4121,3731014.1278],[3907164.4589,3731008.7249],[3907177.1122,3731000.4942],[3907200.4868,3730994.0874],[3907286.3621,3731021.6695],[3907308.1281,3731027.3108],[3907349.9629,3731031.6676],[3907371.3033,3731037.3344],[3907382.9336,3731051.7837],[3907402.2092,3731085.6505],[3907411.6774,3731090.6506],[3907442.8005,3731096.4555],[3907457.5957,3731095.4169],[3907502.8312,3731081.6252],[3907584.2197,3731062.0603],[3907599.7975,3731055.0857],[3907615.8502,3731047.9814],[3907629.2231,3731050.463],[3907700.7546,3731024.1654],[3907733.575,3730994.5192],[3907765.0303,3730976.0313],[3907803.6414,3730969.167],[3907812.2762,3730967.9406],[3907878.1011,3730982.4783],[3907892.1908,3730980.2938],[3907909.3275,3730971.5367],[3907927.7117,3730961.8787],[3907951.2227,3730953.8231],[3907975.002,3730948.6661],[3907995.5692,3730941.0789],[3907997.3133,3730940.1017],[3908112.4613,3730885.5028],[3908138.9869,3730854.7157],[3908149.8365,3730848.175],[3908173.9725,3730840.7653],[3908185.1626,3730831.9262],[3908235.6438,3730790.2577],[3908307.5131,3730728.7588],[3908339.8449,3730693.0585],[3908211.1257,3730652.3999],[3908202.1834,3730649.635],[3908237.2634,3730560.7379],[3908244.3881,3730545.2411],[3908276.7998,3730505.5682],[3908279.2248,3730502.6319],[3908166.9394,3730452.7798],[3908160.5053,3730439.0223],[3908033.4447,3730137.5667],[3908024.8683,3730116.498],[3907873.9076,3729746.22],[3907872.3948,3729742.0609],[3907836.9109,3729691.7804],[3907809.6654,3729665.1239],[3907802.4449,3729603.6508],[3907801.157,3729594.0121],[3907793.8825,3729593.1279],[3907780.7729,3729590.2227],[3907757.8219,3729586.3148],[3907737.4141,3729584.8749],[3907713.7006,3729589.5692],[3907696.167,3729594.7577],[3907665.4012,3729606.8609],[3907588.3267,3729637.0153],[3907559.6258,3729639.4435],[3907525.4426,3729637.6354],[3907504.7082,3729634.7876],[3907467.9541,3729636.2588],[3907386.013,3729639.2746],[3907350.9011,3729635.2326],[3907308.9765,3729621.4559],[3907293.9518,3729611.8491],[3907256.6791,3729586.7829],[3907187.5407,3729536.1351],[3907180.8304,3729543.3506],[3907025.4063,3729762.8625],[3907019.6631,3729771.0753],[3907024.2485,3729792.2139],[3907016.8863,3729813.7843],[3907009.31,3729856.288],[3906995.7206,3729874.9263],[3906975.3665,3729902.4813],[3906977.1302,3729915.1729]]]]},"geometry_name":"shape","properties":{"objectid":1,"gush_num":29912,"gush_suffix":null,"sub_gush_id":11218,"status":6,"status_text":"מוסדר","locality_id":3000,"locality_name":"ירושלים","reg_mun_id":0,"reg_mun_name":" ","county_id":11,"county_name":"ירושלים","region_id":1,"region_name":"ירושלים","wp":3000,"is_anality":0,"anality_date":null,"gushid":"29912-","gush_type":1,"shape_length":4250.57096722348,"shape_area":1064930.67414167},"bbox":[3906923.3374,3729536.1351,3908339.8449,3731096.4555]},{"type":"Feature","id":"layer_sub_gush_all.fid--7c5a1db7_197c2731403_-1b9f","geometry":{"type":"MultiPolygon","coordinates":[[[[3908009.1245,3729114.1968],[3907953.8301,3729152.4724],[3907943.5343,3729160.6714],[3907898.3881,3729196.2457],[3907811.449,3729253.6396],[3907743.0498,3729292.7389],[3907710.1722,3729311.3353],[3907673.3542,3729330.2689],[3907653.5137,3729336.0803],[3907633.3659,3729339.7038],[3907607.6054,3729336.7993],[3907589.9078,3729330.4716],[3907550.5903,3729313.1427],[3907535.4356,3729300.5888],[3907525.7453,3729288.4107],[3907509.3018,3729258.3955],[3907496.0289,3729241.7048],[3907486.2037,3729235.5266],[3907412.1661,3729191.6033],[3907403.3981,3729183.6818],[3907379.7208,3729128.3011],[3907372.8975,3729124.406],[3907354.3053,3729115.0478],[3907326.5088,3729112.5049],[3907311.8993,3729109.1479],[3907309.4048,3729117.8352],[3907292.539,3729151.1888],[3907248.9577,3729201.8386],[3907183.8201,3729288.0156],[3907110.2936,3729350.1748],[3907143.7285,3729387.1064],[3907229.3908,3729469.2818],[3907242.0172,3729482.6259],[3907240.4966,3729484.2799],[3907234.6429,3729490.1508],[3907222.6623,3729502.4563],[3907194.5512,3729529.4277],[3907187.5407,3729536.1351],[3907256.6791,3729586.7829],[3907293.9518,3729611.8491],[3907308.9765,3729621.4559],[3907350.9011,3729635.2326],[3907386.013,3729639.2746],[3907467.9541,3729636.2588],[3907504.7082,3729634.7876],[3907525.4426,3729637.6354],[3907559.6258,3729639.4435],[3907588.3267,3729637.0153],[3907665.4012,3729606.8609],[3907696.167,3729594.7577],[3907713.7006,3729589.5692],[3907737.4141,3729584.8749],[3907757.8219,3729586.3148],[3907780.7729,3729590.2227],[3907793.8825,3729593.1279],[3907801.157,3729594.0121],[3907802.4449,3729603.6508],[3907812.1927,3729608.1814],[3907842.6357,3729623.3576],[3907858.3365,3729614.453],[3907908.6911,3729592.5149],[3907995.2175,3729563.924],[3908013.7707,3729555.6022],[3908022.1138,3729546.3489],[3908031.3997,3729534.232],[3908033.3979,3729529.5737],[3908061.3314,3729432.0724],[3908074.3494,3729416.2354],[3908127.2963,3729377.7685],[3908162.6396,3729365.8943],[3908179.8545,3729367.9183],[3908200.8485,3729380.582],[3908228.0812,3729402.175],[3908251.2001,3729422.0436],[3908265.809,3729429.8961],[3908286.5852,3729435.5664],[3908304.4182,3729427.3233],[3908327.227,3729415.9623],[3908553.6441,3729446.018],[3908564.8448,3729447.7488],[3908707.4358,3729531.7232],[3908862.3322,3729622.7009],[3908866.2478,3729616.9867],[3908758.9958,3729250.4359],[3908722.0765,3729125.408],[3908727.4976,3729113.0402],[3908718.626,3729109.429],[3908650.2562,3729077.7534],[3908643.2527,3729072.405],[3908639.808,3729069.8992],[3908631.4674,3729064.0982],[3908604.2017,3729044.1283],[3908596.6142,3729039.7677],[3908591.3979,3729036.6695],[3908654.0132,3728871.6326],[3908658.6924,3728858.4152],[3908628.8476,3728873.1828],[3908592.3062,3728881.1253],[3908577.4418,3728875.8151],[3908556.8,3728864.7788],[3908540.7583,3728849.1679],[3908513.2868,3728812.8319],[3908491.1504,3728775.9826],[3908473.2246,3728730.9613],[3908460.4104,3728659.4017],[3908449.5049,3728583.8909],[3908439.5975,3728573.3498],[3908412.7077,3728573.1459],[3908364.8008,3728618.9436],[3908348.1063,3728650.7538],[3908354.0508,3728707.8759],[3908352.8682,3728725.9647],[3908350.9209,3728760.5368],[3908346.534,3728794.2074],[3908340.9544,3728818.5672],[3908333.7154,3728839.9719],[3908308.4712,3728894.3132],[3908292.989,3728916.4338],[3908281.1583,3728933.7821],[3908267.6089,3728946.8065],[3908192.6877,3729007.8741],[3908179.0797,3729015.4794],[3908156.6048,3729025.6832],[3908146.087,3729034.3754],[3908133.1122,3729045.6999],[3908119.6579,3729070.5577],[3908111.7049,3729077.2216],[3908053.748,3729093.759],[3908031.3481,3729104.0211],[3908009.1245,3729114.1968]]]]},"geometry_name":"shape","properties":{"objectid":2,"gush_num":29926,"gush_suffix":null,"sub_gush_id":11363,"status":6,"status_text":"מוסדר","locality_id":3000,"locality_name":"ירושלים","reg_mun_id":0,"reg_mun_name":" ","county_id":11,"county_name":"ירושלים","region_id":1,"region_name":"ירושלים","wp":10026,"is_anality":0,"anality_date":null,"gushid":"29926-","gush_type":1,"shape_length":4623.22811455275,"shape_area":518769.952180121},"bbox":[3907110.2936,3728573.1459,3908866.2478,3729639.4435]},{"type":"Feature","id":"layer_sub_gush_all.fid--7c5a1db7_197c2731403_-1b9e","geometry":{"type":"MultiPolygon","coordinates":[[[[3930016.4352,3857615.0883],[3930019.3385,3857622.6545],[3930022.4804,3857639.6151],[3930032.2111,3857692.1642],[3930033.3685,3857697.1159],[3930046.2878,3857733.2835],[3930050.956,3857745.5078],[3930058.2514,3857759.3235],[3930072.0691,3857785.0076],[3930092.3806,3857830.1752],[3930080.7157,3857874.7395],[3930080.6192,3857881.8392],[3930081.8666,3857924.7351],[3930082.7513,3857930.5573],[3930092.4467,3857979.2334],[3930132.4188,3858047.1633],[3930194.9869,3858112.5396],[3930229.1549,3858094.9056],[3930230.0072,3858093.6371],[3930232.2108,3858089.3101],[3930235.1626,3858091.1715],[3930244.2601,3858097.7992],[3930256.536,3858110.4639],[3930259.1364,3858113.5187],[3930281.522,3858143.5479],[3930293.4826,3858136.9743],[3930297.6161,3858132.8691],[3930300.2486,3858130.6295],[3930303.1407,3858128.2406],[3930306.1258,3858126.2243],[3930314.1187,3858122.4137],[3930325.5084,3858120.2401],[3930354.281,3858116.3347],[3930358.6446,3858119.9843],[3930380.1128,3858102.7382],[3930396.3853,3858084.677],[3930425.6112,3858070.0332],[3930463.3051,3858063.3598],[3930484.4118,3858056.1806],[3930488.3255,3858055.0582],[3930492.573,3858053.861],[3930495.5331,3858064.2229],[3930508.5268,3858108.8015],[3930520.3493,3858131.9059],[3930527.3561,3858182.2323],[3930527.4133,3858183.7982],[3930531.6613,3858183.0483],[3930541.6283,3858224.7967],[3930540.2697,3858239.488],[3930558.7563,3858246.852],[3930564.5358,3858237.4507],[3930571.7889,3858198.146],[3930574.4804,3858142.7393],[3930575.562,3858110.5249],[3930594.8466,3858099.3952],[3930646.7291,3858069.1437],[3930664.307,3858095.8214],[3930682.7071,3858090.8815],[3930709.3938,3858097.9387],[3930712.6039,3858098.3083],[3930717.0565,3858098.0802],[3930732.863,3858097.1695],[3930744.6994,3858096.4119],[3930761.7674,3858095.2762],[3930789.1689,3858093.459],[3930810.5594,3858091.946],[3930822.5253,3858090.8154],[3930817.3148,3858075.3106],[3930809.1266,3858032.1444],[3930807.1127,3858021.9308],[3930791.3045,3857965.425],[3930778.2822,3857949.0334],[3930752.628,3857916.6228],[3930747.7702,3857910.3269],[3930724.0892,3857885.2752],[3930709.5569,3857869.8012],[3930700.2431,3857860.2661],[3930695.4928,3857853.9277],[3930679.1839,3857832.2198],[3930670.4541,3857820.664],[3930666.8305,3857814.8316],[3930659.5278,3857801.6228],[3930657.4653,3857797.7616],[3930654.0524,3857791.6742],[3930644.8905,3857764.174],[3930640.4505,3857751.2733],[3930626.9889,3857712.1027],[3930615.8201,3857665.0632],[3930605.7253,3857625.3608],[3930600.1861,3857604.7261],[3930596.6762,3857592.158],[3930602.3985,3857572.169],[3930601.1465,3857562.887],[3930577.8577,3857510.3424],[3930532.903,3857466.0444],[3930527.495,3857460.8073],[3930525.1876,3857457.7845],[3930506.8967,3857433.4636],[3930481.8146,3857400.1272],[3930466.9453,3857380.3012],[3930436.9824,3857341.1104],[3930416.285,3857315.2231],[3930399.7623,3857294.5832],[3930393.9777,3857287.6164],[3930385.9951,3857296.5717],[3930330.043,3857355.829],[3930333.5404,3857360.0519],[3930349.1025,3857381.6465],[3930340.8544,3857389.7073],[3930316.5435,3857410.9069],[3930280.7863,3857375.3007],[3930224.381,3857319.8504],[3930190.0367,3857285.3902],[3930185.9165,3857288.994],[3930156.1658,3857320.4298],[3930186.4822,3857371.5137],[3930187.6886,3857376.1124],[3930191.1133,3857393.5799],[3930199.7214,3857412.6362],[3930180.8089,3857453.6507],[3930178.1187,3857456.7767],[3930125.7419,3857508.955],[3930121.2201,3857514.216],[3930084.7681,3857488.5261],[3930063.1898,3857466.7368],[3930024.1133,3857494.5117],[3930018.7569,3857496.6043],[3929981.4494,3857508.1968],[3929979.4048,3857510.3773],[3929977.4903,3857511.773],[3929956.4676,3857527.2341],[3929975.0346,3857552.6803],[3930012.8282,3857604.6906],[3930016.4352,3857615.0883]]]]},"geometry_name":"shape","properties":{"objectid":3,"gush_num":17512,"gush_suffix":null,"sub_gush_id":13979,"status":6,"status_text":"מוסדר","locality_id":542,"locality_name":"ריינה","reg_mun_id":0,"reg_mun_name":" ","county_id":25,"county_name":"יזרעאל","region_id":2,"region_name":"הצפון","wp":542,"is_anality":0,"anality_date":null,"gushid":"17512-","gush_type":1,"shape_length":2863.99202060543,"shape_area":305439.427133537},"bbox":[3929956.4676,3857285.3902,3930822.5253,3858246.852]},{"type":"Feature","id":"layer_sub_gush_all.fid--7c5a1db7_197c2731403_-1b9d","geometry":{"type":"MultiPolygon","coordinates":[[[[3960930.7055,3897384.0199],[3960928.0619,3897383.9546],[3960925.3439,3897383.8896],[3960914.136,3897373.0072],[3960837.9093,3897295.1771],[3960827.2737,3897298.5819],[3960719.3873,3897331.6624],[3960577.0631,3897354.3914],[3960489.1436,3897296.2017],[3960415.0609,3897308.1364],[3960370.69,3897495.103],[3960301.2654,3897786.4914],[3960415.9326,3897808.6406],[3960489.0656,3897810.0245],[3960563.9941,3897811.5915],[3960667.1906,3897856.5333],[3960744.3765,3897890.2152],[3960798.6749,3897913.9593],[3960818.948,3897830.4291],[3960850.623,3897853.9944],[3960913.2993,3897597.8175],[3960956.3188,3897420.2119],[3960958.3601,3897410.6285],[3960964.9447,3897383.1109],[3960930.7055,3897384.0199]]]]},"geometry_name":"shape","properties":{"objectid":4,"gush_num":13817,"gush_suffix":null,"sub_gush_id":839,"status":6,"status_text":"מוסדר","locality_id":26,"locality_name":"ראש פינה","reg_mun_id":0,"reg_mun_name":" ","county_id":21,"county_name":"צפת","region_id":2,"region_name":"הצפון","wp":26,"is_anality":0,"anality_date":null,"gushid":"13817-","gush_type":1,"shape_length":1871.66963198195,"shape_area":199781.162938415},"bbox":[3960301.2654,3897295.1771,3960964.9447,3897913.9593]},{"type":"Feature","id":"layer_sub_gush_all.fid--7c5a1db7_197c2731403_-1b9c","geometry":{"type":"MultiPolygon","coordinates":[[[[3950877.4015,3855471.5533],[3950870.2909,3855425.6263],[3950870.8877,3855378.5834],[3950878.3207,3855345.6492],[3950897.1616,3855307.7265],[3950929.0106,3855256.2751],[3950930.0772,3855253.3796],[3950933.3483,3855243.4682],[3950959.4735,3855157.023],[3950953.1411,3855154.3006],[3950906.7728,3855134.9695],[3950811.3812,3855095.1215],[3950772.1324,3855095.1533],[3950759.083,3855105.3273],[3950707.4744,3855144.5305],[3950696.8895,3855146.9447],[3950692.3476,3855147.8515],[3950683.9497,3855149.5888],[3950676.3863,3855151.2493],[3950668.2846,3855152.8367],[3950658.3859,3855155.1745],[3950641.628,3855158.9472],[3950629.3368,3855161.4404],[3950614.6903,3855164.0146],[3950607.3494,3855165.6745],[3950591.09,3855168.6257],[3950582.5622,3855170.3633],[3950567.693,3855172.938],[3950558.8124,3855174.5274],[3950543.4621,3855177.5507],[3950532.7832,3855179.5177],[3950519.9354,3855181.9378],[3950517.5811,3855182.466],[3950491.6437,3855187.0831],[3950491.8607,3855184.9952],[3950404.8662,3855205.6549],[3950394.7077,3855207.9932],[3950291.064,3855231.6787],[3950269.9757,3855267.4442],[3950262.2205,3855280.8092],[3950243.0339,3855313.2895],[3950229.4806,3855336.6598],[3950202.4289,3855383.1766],[3950125.4997,3855465.4613],[3950095.8106,3855496.8515],[3950064.7168,3855530.1837],[3950049.6126,3855549.458],[3950035.7647,3855566.7906],[3950030.4763,3855573.216],[3950007.7734,3855602.1276],[3949998.252,3855614.1556],[3949960.2771,3855662.1928],[3949943.2121,3855683.7089],[3949929.3828,3855701.1906],[3949919.7012,3855715.903],[3949916.8737,3855719.9363],[3949912.1073,3855727.4041],[3949892.6876,3855756.4562],[3949861.4786,3855803.0594],[3949832.7465,3855846.3013],[3949823.4358,3855861.0127],[3949809.799,3855881.4017],[3949778.0721,3855928.752],[3949769.0917,3855942.1953],[3949736.7521,3856003.7872],[3949706.907,3856061.7196],[3949666.337,3856140.1084],[3949655.7424,3856160.7134],[3949648.1006,3856175.3462],[3949635.4555,3856199.3115],[3949626.1525,3856217.2291],[3949615.7948,3856236.1933],[3949538.0852,3856285.752],[3949528.1019,3856291.7425],[3949570.0663,3856285.9682],[3949655.6874,3856274.5452],[3949679.4588,3856271.5528],[3949689.4206,3856275.2172],[3949695.0294,3856277.7747],[3949710.3224,3856284.3257],[3949714.3105,3856286.2387],[3949728.8764,3856292.3434],[3949738.8139,3856297.0747],[3949748.229,3856301.3679],[3949757.9777,3856305.4786],[3949771.6761,3856311.9814],[3949794.4824,3856322.0612],[3949812.684,3856330.5501],[3949826.9472,3856336.8125],[3949852.0448,3856318.5176],[3949878.6935,3856287.1193],[3949899.8317,3856262.4029],[3949951.6977,3856201.2768],[3949991.1404,3856139.2917],[3950084.3592,3856066.5403],[3950100.5471,3856053.5622],[3950125.4458,3856034.0374],[3950146.8363,3856017.2804],[3950162.8772,3856004.8618],[3950181.4533,3855990.1252],[3950200.503,3855975.611],[3950263.3963,3855926.2379],[3950303.6606,3855895.3398],[3950278.6656,3855828.9795],[3950310.0766,3855827.8519],[3950327.7812,3855827.4319],[3950351.2723,3855826.5862],[3950371.3787,3855826.0106],[3950388.7861,3855825.4421],[3950410.2667,3855818.4512],[3950420.9054,3855815.1051],[3950579.8962,3855761.5776],[3950618.3097,3855748.3715],[3950709.6059,3855725.6473],[3950729.867,3855831.3084],[3950896.7786,3855779.9744],[3951026.4747,3855741.076],[3951025.9105,3855731.3857],[3950948.0424,3855667.2594],[3950960.0558,3855637.294],[3950979.5307,3855605.6309],[3950982.3075,3855582.9597],[3950968.8611,3855576.7713],[3950946.9545,3855539.0707],[3950891.6651,3855544.7379],[3950881.7601,3855496.6421],[3950877.4015,3855471.5533]]]]},"geometry_name":"shape","properties":{"objectid":5,"gush_num":15481,"gush_suffix":null,"sub_gush_id":4346,"status":6,"status_text":"מוסדר","locality_id":292,"locality_name":"שרונה","reg_mun_id":3,"reg_mun_name":"הגליל התחתון","county_id":22,"county_name":"כנרת","region_id":2,"region_name":"הצפון","wp":10003,"is_anality":0,"anality_date":null,"gushid":"15481-","gush_type":1,"shape_length":3915.91920508561,"shape_area":505039.534769358},"bbox":[3949528.1019,3855095.1215,3951026.4747,3856336.8125]},{"type":"Feature","id":"layer_sub_gush_all.fid--7c5a1db7_197c2731403_-1b9b","geometry":{"type":"MultiPolygon","coordinates":[[[[3949891.6089,3855094.3002],[3949861.3494,3855098.8528],[3949809.5173,3855110.3205],[3949811.3764,3855104.799],[3949816.7503,3855088.5333],[3949799.7813,3854997.0326],[3949793.0072,3854959.851],[3949779.4764,3854885.078],[3949754.3177,3854921.5233],[3949712.6311,3854982.6125],[3949704.5762,3854995.0458],[3949688.2316,3855018.7949],[3949674.3094,3855046.8242],[3949663.8494,3855068.8805],[3949642.6692,3855080.4537],[3949602.4118,3855102.9234],[3949586.7043,3855111.3138],[3949583.6218,3855113.5583],[3949530.7499,3855142.7328],[3949490.7617,3855169.0409],[3949473.9746,3855183.2861],[3949446.6101,3855206.5047],[3949415.4571,3855246.134],[3949396.2804,3855272.4997],[3949386.159,3855289.4115],[3949365.9772,3855325.3223],[3949350.6411,3855352.2001],[3949335.7569,3855378.033],[3949303.7089,3855434.2648],[3949281.5649,3855450.2262],[3949214.0815,3855500.4985],[3949205.5953,3855504.1734],[3949168.1321,3855521.1929],[3949129.4453,3855538.5138],[3949101.0048,3855551.4097],[3949092.0193,3855555.6822],[3949089.7785,3855557.1789],[3949033.447,3855624.0471],[3948970.7364,3855699.3562],[3948956.2388,3855761.1973],[3948947.6305,3855797.3774],[3948935.2065,3855850.4164],[3948922.5065,3855904.4256],[3948917.534,3855925.9843],[3948912.2108,3855940.9087],[3948904.6591,3855962.1758],[3948892.7791,3855995.7554],[3948885.6148,3856016.2016],[3948873.7916,3856050.2285],[3948858.5028,3856092.9873],[3948856.998,3856097.4667],[3948927.2332,3856106.4572],[3948991.2704,3856114.5685],[3948983.7249,3856181.9854],[3948975.1037,3856259.2464],[3948979.1078,3856375.3202],[3949000.9382,3856530.3575],[3949021.4084,3856632.7732],[3949054.5845,3856621.2064],[3949082.8863,3856611.367],[3949099.1965,3856605.8079],[3949126.4421,3856596.493],[3949153.9653,3856586.8789],[3949176.1878,3856579.0678],[3949320.6996,3856528.8908],[3949361.3096,3856464.3537],[3949386.419,3856424.6915],[3949397.9526,3856406.4584],[3949409.7597,3856394.759],[3949434.002,3856370.3892],[3949497.0116,3856326.3845],[3949525.5445,3856294.7395],[3949528.1019,3856291.7425],[3949538.0852,3856285.752],[3949615.7948,3856236.1933],[3949626.1525,3856217.2291],[3949635.4555,3856199.3115],[3949648.1006,3856175.3462],[3949655.7424,3856160.7134],[3949666.337,3856140.1084],[3949706.907,3856061.7196],[3949736.7521,3856003.7872],[3949769.0917,3855942.1953],[3949778.0721,3855928.752],[3949809.799,3855881.4017],[3949823.4358,3855861.0127],[3949832.7465,3855846.3013],[3949861.4786,3855803.0594],[3949892.6876,3855756.4562],[3949912.1073,3855727.4041],[3949916.8737,3855719.9363],[3949919.7012,3855715.903],[3949929.3828,3855701.1906],[3949943.2121,3855683.7089],[3949960.2771,3855662.1928],[3949998.252,3855614.1556],[3950007.7734,3855602.1276],[3950030.4763,3855573.216],[3950035.7647,3855566.7906],[3950049.6126,3855549.458],[3950064.7168,3855530.1837],[3950095.8106,3855496.8515],[3950125.4997,3855465.4613],[3950202.4289,3855383.1766],[3950229.4806,3855336.6598],[3950243.0339,3855313.2895],[3950262.2205,3855280.8092],[3950269.9757,3855267.4442],[3950291.064,3855231.6787],[3950307.5435,3855192.6454],[3950311.2305,3855184.0624],[3950330.7514,3855137.8644],[3950353.7565,3855083.6061],[3950363.9864,3855059.2759],[3950370.9348,3855042.484],[3950379.4319,3855022.1841],[3950391.8567,3854993.2262],[3950413.8063,3854953.8062],[3950416.1692,3854949.5507],[3950427.2991,3854928.9457],[3950419.2125,3854929.1165],[3950400.2016,3854929.5401],[3950375.7016,3854944.4407],[3950334.8759,3854951.1846],[3950317.6722,3854954.6597],[3950263.1384,3854968.1492],[3950217.2818,3854980.3482],[3950200.9304,3855018.7093],[3950177.6679,3855024.7351],[3950168.937,3855026.7711],[3950179.2637,3854996.7753],[3950159.1236,3855005.1782],[3950136.9096,3855014.9284],[3950117.2709,3855023.5536],[3950095.52,3855033.0789],[3950083.6618,3855037.956],[3950061.3732,3855047.6318],[3950026.2281,3855063.4545],[3949986.6208,3855075.2633],[3949984.4519,3855075.7909],[3949966.7336,3855081.2052],[3949963.9154,3855081.6599],[3949941.7926,3855083.8057],[3949937.2695,3855084.8613],[3949927.5181,3855086.8253],[3949921.3998,3855087.8851],[3949911.6677,3855090.1472],[3949898.6351,3855092.8653],[3949891.6089,3855094.3002]]]]},"geometry_name":"shape","properties":{"objectid":6,"gush_num":15480,"gush_suffix":null,"sub_gush_id":4308,"status":6,"status_text":"מוסדר","locality_id":292,"locality_name":"שרונה","reg_mun_id":3,"reg_mun_name":"הגליל התחתון","county_id":22,"county_name":"כנרת","region_id":2,"region_name":"הצפון","wp":10003,"is_anality":0,"anality_date":null,"gushid":"15480-","gush_type":1,"shape_length":4605.86186888618,"shape_area":835893.253267071},"bbox":[3948856.998,3854885.078,3950427.2991,3856632.7732]},{"type":"Feature","id":"layer_sub_gush_all.fid--7c5a1db7_197c2731403_-1b9a","geometry":{"type":"MultiPolygon","coordinates":[[[[3947542.7839,3854542.7907],[3947574.5134,3854532.7244],[3947576.1071,3854532.1987],[3947585.5222,3854529.1939],[3947594.7432,3854538.0423],[3947598.363,3854554.6571],[3947603.9542,3854581.1071],[3947594.7293,3854586.0496],[3947619.9218,3854603.2827],[3947636.8288,3854615.0196],[3947647.0468,3854621.9274],[3947649.6387,3854627.5865],[3947651.5528,3854629.0728],[3947665.0428,3854639.1035],[3947676.358,3854647.1268],[3947697.0358,3854661.1654],[3947698.1875,3854661.908],[3947706.0632,3854666.5851],[3947708.4592,3854667.9211],[3947736.1875,3854682.8369],[3947752.5432,3854688.9841],[3947753.8797,3854689.4281],[3947759.1687,3854690.6079],[3947766.9636,3854692.527],[3947770.585,3854694.3818],[3947776.2302,3854697.1261],[3947780.279,3854699.278],[3947795.3238,3854700.2847],[3947803.2372,3854705.1853],[3947815.7201,3854712.8329],[3947816.3341,3854728.8589],[3947821.9067,3854739.8781],[3947835.1367,3854764.8186],[3947838.2856,3854770.7],[3947873.4127,3854769.4209],[3947880.0856,3854767.6153],[3947882.002,3854770.0706],[3947889.117,3854774.6004],[3947890.1439,3854784.9599],[3947890.3528,3854786.9722],[3947892.1602,3854805.5298],[3947893.3183,3854816.4854],[3947895.7736,3854826.9159],[3947898.777,3854841.5197],[3947901.4872,3854857.6152],[3947903.0882,3854867.6006],[3947904.387,3854867.7465],[3947903.9651,3854877.2896],[3947904.1175,3854878.9292],[3947908.3015,3854898.4503],[3947928.5182,3854898.1023],[3947930.0473,3854886.2455],[3947931.104,3854878.4154],[3947931.283,3854868.202],[3947931.7631,3854844.4948],[3947935.6632,3854831.3649],[3947939.2862,3854818.683],[3947943.4576,3854802.7197],[3947945.6967,3854793.023],[3947948.485,3854780.3432],[3947951.4025,3854767.3649],[3947951.6929,3854764.7551],[3947952.271,3854750.888],[3947957.0016,3854743.6453],[3947979.7417,3854736.1345],[3947981.428,3854735.4594],[3947995.3591,3854728.4921],[3948000.7754,3854736.2316],[3948009.3691,3854746.1995],[3948012.4381,3854749.6956],[3948018.223,3854756.3905],[3948027.9432,3854756.8137],[3948053.7846,3854758.3897],[3948051.508,3854730.1423],[3948051.2024,3854726.5648],[3948049.0049,3854700.2554],[3948047.1469,3854691.389],[3948043.2895,3854684.0931],[3948031.903,3854662.2047],[3948030.4483,3854658.9283],[3948018.8362,3854628.2442],[3948017.6222,3854624.8181],[3948017.3411,3854623.626],[3948016.9058,3854620.0489],[3948015.4472,3854607.678],[3948010.5815,3854582.4191],[3948004.9659,3854553.9566],[3948010.8977,3854552.5256],[3948030.5834,3854547.6314],[3948054.5878,3854541.5338],[3948047.4972,3854501.5207],[3948046.7278,3854497.8699],[3948038.2602,3854463.6002],[3948035.9378,3854454.437],[3948034.0835,3854447.0617],[3948009.1207,3854463.1506],[3948005.5859,3854443.6286],[3948001.0195,3854419.4129],[3947981.1873,3854424.9782],[3947957.9264,3854431.6702],[3947948.9185,3854434.2269],[3947932.0518,3854438.9648],[3947925.0027,3854423.4024],[3947889.65,3854438.1748],[3947876.6426,3854443.4995],[3947863.0426,3854411.1807],[3947838.5981,3854419.2917],[3947804.869,3854430.5562],[3947809.1865,3854451.7908],[3947777.7822,3854450.4516],[3947781.5803,3854479.2911],[3947785.6397,3854508.7263],[3947787.6232,3854523.5559],[3947788.0173,3854525.4186],[3947793.2925,3854543.8183],[3947803.6949,3854580.7672],[3947794.9464,3854583.2487],[3947783.5508,3854587.8985],[3947776.9354,3854590.4493],[3947770.8926,3854584.3514],[3947752.8473,3854577.4629],[3947736.1159,3854584.5858],[3947731.9767,3854568.0468],[3947731.189,3854564.4706],[3947729.5155,3854555.082],[3947727.9307,3854544.0531],[3947727.2362,3854540.6258],[3947726.5434,3854537.9438],[3947722.5748,3854522.8954],[3947712.8894,3854521.5028],[3947705.449,3854520.3283],[3947688.6571,3854517.7603],[3947684.9486,3854495.2568],[3947676.7702,3854495.7241],[3947675.4353,3854495.951],[3947656.9574,3854494.1325],[3947666.9662,3854483.5972],[3947660.3217,3854466.4682],[3947648.1923,3854436.0836],[3947624.673,3854458.7281],[3947621.532,3854479.0864],[3947617.9062,3854498.3279],[3947610.6217,3854500.3583],[3947587.9917,3854507.2717],[3947565.7506,3854513.9604],[3947551.887,3854518.1687],[3947540.6735,3854521.4014],[3947508.9668,3854540.9348],[3947523.0833,3854549.3241],[3947542.7839,3854542.7907]]]]},"geometry_name":"shape","properties":{"objectid":7,"gush_num":15370,"gush_suffix":null,"sub_gush_id":4491,"status":6,"status_text":"מוסדר","locality_id":306,"locality_name":"שדמות דבורה","reg_mun_id":3,"reg_mun_name":"הגליל התחתון","county_id":22,"county_name":"כנרת","region_id":2,"region_name":"הצפון","wp":10003,"is_anality":0,"anality_date":null,"gushid":"15370-","gush_type":1,"shape_length":1916.54207782795,"shape_area":78391.8213750016},"bbox":[3947508.9668,3854411.1807,3948054.5878,3854898.4503]},{"type":"Feature","id":"layer_sub_gush_all.fid--7c5a1db7_197c2731403_-1b99","geometry":{"type":"MultiPolygon","coordinates":[[[[3949009.1911,3855092.6033],[3949008.593,3855090.8156],[3949006.3573,3855083.2546],[3949003.1058,3855070.1052],[3949004.8405,3855059.2539],[3949004.5494,3855057.8382],[3949003.4414,3855056.1264],[3948983.1971,3855033.4226],[3948974.7328,3855021.3486],[3948973.1958,3855018.6688],[3948972.3342,3855015.3535],[3948971.4878,3855010.6965],[3948969.6199,3855001.9046],[3948956.8172,3854978.2311],[3948950.2455,3854961.4001],[3948943.5983,3854940.3572],[3948942.6447,3854904.2787],[3948910.7191,3854888.0716],[3948910.1679,3854886.5075],[3948910.3395,3854884.6433],[3948916.0054,3854851.4181],[3948916.2686,3854838.1108],[3948919.1628,3854822.3576],[3948919.5746,3854817.7883],[3948919.5559,3854810.4082],[3948920.1089,3854801.7594],[3948927.3167,3854776.8052],[3948927.7993,3854769.5853],[3948924.2961,3854770.5136],[3948907.7349,3854778.756],[3948871.7478,3854777.2822],[3948789.6455,3854773.9874],[3948781.9101,3854773.6343],[3948707.3763,3854770.6924],[3948702.5347,3854770.481],[3948623.5861,3854767.3261],[3948515.7915,3854762.7524],[3948474.9585,3854766.7315],[3948396.7595,3854774.1588],[3948391.88,3854796.0133],[3948385.0562,3854826.6691],[3948379.4428,3854851.8055],[3948376.6566,3854865.1565],[3948376.2009,3854868.3631],[3948365.3248,3854925.4191],[3948355.3283,3854978.224],[3948343.4621,3855040.054],[3948326.4271,3855052.0244],[3948306.2069,3855066.09],[3948284.2278,3855081.5019],[3948219.3124,3855090.9079],[3948224.3372,3855112.6636],[3948231.7245,3855144.7012],[3948235.8115,3855162.2846],[3948178.1874,3855187.6257],[3948161.5491,3855195.122],[3948158.4356,3855188.7185],[3948116.1087,3855189.271],[3948138.3323,3855220.3029],[3948132.2919,3855230.4566],[3948129.2996,3855235.6079],[3948116.6286,3855257.3333],[3948104.5929,3855265.9364],[3948098.2228,3855270.2761],[3948114.757,3855319.0952],[3948138.8972,3855389.6178],[3948143.8455,3855404.2142],[3948163.3606,3855461.7814],[3948173.4844,3855491.3033],[3948188.767,3855536.0289],[3948201.2977,3855572.3696],[3948213.7186,3855608.1463],[3948222.5817,3855633.9068],[3948240.4431,3855685.8674],[3948273.2852,3855755.6662],[3948286.0079,3855782.6855],[3948307.0043,3855827.0613],[3948327.8141,3855870.916],[3948340.7177,3855898.0928],[3948348.6701,3855970.9051],[3948351.0807,3855993.0397],[3948357.0405,3856047.5942],[3948359.9818,3856074.2755],[3948365.4826,3856123.1666],[3948370.2917,3856162.3687],[3948374.8477,3856196.7259],[3948380.8007,3856240.8466],[3948397.8464,3856269.731],[3948415.1526,3856298.9133],[3948437.426,3856336.6561],[3948476.0241,3856401.4233],[3948479.5268,3856407.5282],[3948465.027,3856417.7044],[3948471.3781,3856427.8281],[3948488.1166,3856415.2605],[3948492.0967,3856411.97],[3948574.6731,3856340.6349],[3948580.8927,3856335.2512],[3948611.195,3856309.3037],[3948721.3204,3856214.6382],[3948726.7068,3856210.0021],[3948805.7261,3856141.8821],[3948856.998,3856097.4667],[3948858.5028,3856092.9873],[3948873.7916,3856050.2285],[3948885.6148,3856016.2016],[3948892.7791,3855995.7554],[3948904.6591,3855962.1758],[3948912.2108,3855940.9087],[3948917.534,3855925.9843],[3948922.5065,3855904.4256],[3948935.2065,3855850.4164],[3948947.6305,3855797.3774],[3948956.2388,3855761.1973],[3948970.7364,3855699.3562],[3949033.447,3855624.0471],[3949089.7785,3855557.1789],[3949092.0193,3855555.6822],[3949101.0048,3855551.4097],[3949129.4453,3855538.5138],[3949168.1321,3855521.1929],[3949205.5953,3855504.1734],[3949214.0815,3855500.4985],[3949281.5649,3855450.2262],[3949303.7089,3855434.2648],[3949295.1275,3855426.1112],[3949299.8182,3855417.9731],[3949268.3505,3855389.2779],[3949259.544,3855376.5153],[3949241.3087,3855346.8168],[3949219.6487,3855330.7324],[3949204.4435,3855325.3668],[3949190.296,3855305.6475],[3949189.2538,3855304.3083],[3949189.123,3855302.2171],[3949190.346,3855301.0192],[3949196.757,3855296.4227],[3949197.6549,3855295.6694],[3949197.9987,3855294.7783],[3949197.4566,3855294.0341],[3949195.4852,3855292.9978],[3949161.568,3855270.9439],[3949153.4203,3855265.4855],[3949152.1737,3855263.9603],[3949151.0969,3855259.9374],[3949150.4766,3855256.6962],[3949149.2459,3855250.5489],[3949148.0612,3855247.8682],[3949095.0874,3855201.747],[3949073.3805,3855166.3539],[3949034.4467,3855107.8583],[3949009.955,3855093.9432],[3949009.1911,3855092.6033]]]]},"geometry_name":"shape","properties":{"objectid":8,"gush_num":15355,"gush_suffix":null,"sub_gush_id":4337,"status":6,"status_text":"מוסדר","locality_id":306,"locality_name":"שדמות דבורה","reg_mun_id":3,"reg_mun_name":"הגליל התחתון","county_id":22,"county_name":"כנרת","region_id":2,"region_name":"הצפון","wp":10003,"is_anality":0,"anality_date":null,"gushid":"15355-","gush_type":1,"shape_length":3941.31775460261,"shape_area":776467.155389079},"bbox":[3948098.2228,3854762.7524,3949303.7089,3856427.8281]},{"type":"Feature","id":"layer_sub_gush_all.fid--7c5a1db7_197c2731403_-1b98","geometry":{"type":"MultiPolygon","coordinates":[[[[3947767.5229,3854754.7718],[3947763.2615,3854756.7205],[3947762.2428,3854757.2448],[3947752.6854,3854762.7847],[3947738.6088,3854771.0193],[3947735.0159,3854773.2645],[3947722.9798,3854781.5687],[3947712.6099,3854788.6015],[3947699.1847,3854797.8036],[3947694.7567,3854799.8272],[3947684.0663,3854804.7734],[3947657.1093,3854817.3632],[3947633.1163,3854828.5293],[3947621.8326,3854833.5515],[3947627.2227,3854838.1603],[3947654.3416,3854861.7255],[3947653.4263,3854889.6829],[3947652.1434,3854903.7755],[3947651.2185,3854912.4999],[3947649.5262,3854918.3187],[3947649.9645,3854923.1632],[3947654.0612,3854929.7879],[3947655.9235,3854932.8398],[3947657.5063,3854935.4451],[3947659.7322,3854943.1181],[3947662.8362,3854953.4727],[3947663.8469,3854957.1976],[3947664.9928,3854963.1586],[3947666.8519,3854972.5471],[3947667.9891,3854974.9298],[3947674.137,3854986.0225],[3947679.4949,3855000.3226],[3947684.383,3855012.0147],[3947685.8515,3855013.2784],[3947691.5181,3855017.141],[3947703.4642,3855025.163],[3947732.1673,3855043.9534],[3947733.7653,3855045.1423],[3947743.5787,3855060.9225],[3947748.6687,3855064.041],[3947763.25,3855072.5783],[3947794.6037,3855090.5421],[3947812.4069,3855111.9684],[3947815.6067,3855115.8371],[3947816.6109,3855116.8783],[3947820.9343,3855117.5386],[3947844.6827,3855120.0149],[3947856.1394,3855125.056],[3947858.4435,3855126.6904],[3947877.2436,3855146.1014],[3947882.6549,3855151.6792],[3947902.3846,3855171.9825],[3947913.5743,3855166.3637],[3947927.8463,3855184.8167],[3947933.44,3855189.1268],[3947935.7813,3855190.8356],[3947948.3794,3855199.825],[3947950.3044,3855198.1802],[3947951.6577,3855197.8786],[3947955.7553,3855197.1976],[3947967.9088,3855206.4117],[3947990.7114,3855224.0235],[3947999.5387,3855230.8602],[3948013.6628,3855241.8586],[3948024.6464,3855250.4792],[3948032.4702,3855256.4983],[3948069.4654,3855282.7227],[3948076.766,3855279.5735],[3948098.2228,3855270.2761],[3948104.5929,3855265.9364],[3948116.6286,3855257.3333],[3948129.2996,3855235.6079],[3948132.2919,3855230.4566],[3948138.3323,3855220.3029],[3948116.1087,3855189.271],[3948158.4356,3855188.7185],[3948161.5491,3855195.122],[3948178.1874,3855187.6257],[3948235.8115,3855162.2846],[3948231.7245,3855144.7012],[3948224.3372,3855112.6636],[3948219.3124,3855090.9079],[3948284.2278,3855081.5019],[3948306.2069,3855066.09],[3948326.4271,3855052.0244],[3948343.4621,3855040.054],[3948355.3283,3854978.224],[3948365.3248,3854925.4191],[3948376.2009,3854868.3631],[3948376.6566,3854865.1565],[3948379.4428,3854851.8055],[3948385.0562,3854826.6691],[3948391.88,3854796.0133],[3948396.7595,3854774.1588],[3948474.9585,3854766.7315],[3948515.7915,3854762.7524],[3948514.6797,3854755.7478],[3948474.1548,3854734.4549],[3948449.2866,3854721.4718],[3948439.2206,3854716.2043],[3948374.2179,3854682.1506],[3948356.8163,3854673.2486],[3948359.2111,3854666.6081],[3948377.1379,3854618.1084],[3948388.5428,3854587.367],[3948380.9789,3854544.0006],[3948375.546,3854514.718],[3948339.9292,3854452.7859],[3948293.5926,3854480.856],[3948273.6655,3854493.0565],[3948262.1833,3854500.0924],[3948212.2905,3854530.4075],[3948214.9992,3854538.228],[3948213.3917,3854548.2211],[3948207.0098,3854585.2115],[3948195.8727,3854604.3974],[3948185.4005,3854622.389],[3948173.4322,3854620.406],[3948166.3986,3854618.7835],[3948156.802,3854615.8255],[3948151.2133,3854613.454],[3948123.4299,3854606.4412],[3948091.7991,3854611.2906],[3948076.2614,3854613.491],[3948070.1054,3854614.2517],[3948068.6218,3854614.3299],[3948062.1106,3854613.9733],[3948053.4645,3854612.8766],[3948015.4472,3854607.678],[3948016.9058,3854620.0489],[3948017.3411,3854623.626],[3948017.6222,3854624.8181],[3948018.8362,3854628.2442],[3948030.4483,3854658.9283],[3948031.903,3854662.2047],[3948043.2895,3854684.0931],[3948047.1469,3854691.389],[3948049.0049,3854700.2554],[3948051.2024,3854726.5648],[3948051.508,3854730.1423],[3948053.7846,3854758.3897],[3948027.9432,3854756.8137],[3948018.223,3854756.3905],[3948012.4381,3854749.6956],[3948009.3691,3854746.1995],[3948000.7754,3854736.2316],[3947995.3591,3854728.4921],[3947981.428,3854735.4594],[3947979.7417,3854736.1345],[3947957.0016,3854743.6453],[3947952.271,3854750.888],[3947951.6929,3854764.7551],[3947951.4025,3854767.3649],[3947948.485,3854780.3432],[3947945.6967,3854793.023],[3947943.4576,3854802.7197],[3947939.2862,3854818.683],[3947935.6632,3854831.3649],[3947931.7631,3854844.4948],[3947931.283,3854868.202],[3947931.104,3854878.4154],[3947930.0473,3854886.2455],[3947928.5182,3854898.1023],[3947908.3015,3854898.4503],[3947904.1175,3854878.9292],[3947903.9651,3854877.2896],[3947904.387,3854867.7465],[3947903.0882,3854867.6006],[3947901.4872,3854857.6152],[3947898.777,3854841.5197],[3947895.7736,3854826.9159],[3947893.3183,3854816.4854],[3947892.1602,3854805.5298],[3947890.3528,3854786.9722],[3947890.1439,3854784.9599],[3947889.117,3854774.6004],[3947882.002,3854770.0706],[3947880.0856,3854767.6153],[3947873.4127,3854769.4209],[3947838.2856,3854770.7],[3947835.1367,3854764.8186],[3947821.9067,3854739.8781],[3947816.3341,3854728.8589],[3947815.7201,3854712.8329],[3947811.4344,3854727.6036],[3947809.4479,3854734.4668],[3947803.0288,3854741.4899],[3947788.1483,3854747.1174],[3947782.3666,3854749.2935],[3947767.5229,3854754.7718]]]]},"geometry_name":"shape","properties":{"objectid":9,"gush_num":15368,"gush_suffix":null,"sub_gush_id":4457,"status":6,"status_text":"מוסדר","locality_id":306,"locality_name":"שדמות דבורה","reg_mun_id":3,"reg_mun_name":"הגליל התחתון","county_id":22,"county_name":"כנרת","region_id":2,"region_name":"הצפון","wp":10003,"is_anality":0,"anality_date":null,"gushid":"15368-","gush_type":1,"shape_length":2798.69334928356,"shape_area":241643.098900001},"bbox":[3947621.8326,3854452.7859,3948515.7915,3855282.7227]},{"type":"Feature","id":"layer_sub_gush_all.fid--7c5a1db7_197c2731403_-1b97","geometry":{"type":"MultiPolygon","coordinates":[[[[3947624.673,3854458.7281],[3947648.1923,3854436.0836],[3947660.3217,3854466.4682],[3947666.9662,3854483.5972],[3947656.9574,3854494.1325],[3947675.4353,3854495.951],[3947676.7702,3854495.7241],[3947684.9486,3854495.2568],[3947688.6571,3854517.7603],[3947705.449,3854520.3283],[3947712.8894,3854521.5028],[3947722.5748,3854522.8954],[3947726.5434,3854537.9438],[3947727.2362,3854540.6258],[3947727.9307,3854544.0531],[3947729.5155,3854555.082],[3947731.189,3854564.4706],[3947731.9767,3854568.0468],[3947736.1159,3854584.5858],[3947752.8473,3854577.4629],[3947770.8926,3854584.3514],[3947776.9354,3854590.4493],[3947783.5508,3854587.8985],[3947794.9464,3854583.2487],[3947803.6949,3854580.7672],[3947793.2925,3854543.8183],[3947788.0173,3854525.4186],[3947787.6232,3854523.5559],[3947785.6397,3854508.7263],[3947781.5803,3854479.2911],[3947777.7822,3854450.4516],[3947809.1865,3854451.7908],[3947804.869,3854430.5562],[3947838.5981,3854419.2917],[3947863.0426,3854411.1807],[3947876.6426,3854443.4995],[3947889.65,3854438.1748],[3947925.0027,3854423.4024],[3947932.0518,3854438.9648],[3947948.9185,3854434.2269],[3947957.9264,3854431.6702],[3947981.1873,3854424.9782],[3948001.0195,3854419.4129],[3948005.5859,3854443.6286],[3948009.1207,3854463.1506],[3948034.0835,3854447.0617],[3948035.9378,3854454.437],[3948038.2602,3854463.6002],[3948046.7278,3854497.8699],[3948047.4972,3854501.5207],[3948054.5878,3854541.5338],[3948030.5834,3854547.6314],[3948010.8977,3854552.5256],[3948004.9659,3854553.9566],[3948010.5815,3854582.4191],[3948015.4472,3854607.678],[3948053.4645,3854612.8766],[3948062.1106,3854613.9733],[3948068.6218,3854614.3299],[3948070.1054,3854614.2517],[3948076.2614,3854613.491],[3948091.7991,3854611.2906],[3948123.4299,3854606.4412],[3948151.2133,3854613.454],[3948156.802,3854615.8255],[3948166.3986,3854618.7835],[3948173.4322,3854620.406],[3948185.4005,3854622.389],[3948195.8727,3854604.3974],[3948207.0098,3854585.2115],[3948213.3917,3854548.2211],[3948214.9992,3854538.228],[3948212.2905,3854530.4075],[3948198.0122,3854486.6852],[3948183.939,3854443.3352],[3948156.8232,3854360.8075],[3948180.4328,3854330.1858],[3948176.2452,3854324.3072],[3948124.4973,3854248.6996],[3948085.9407,3854272.6492],[3948070.0511,3854282.4538],[3948030.5854,3854306.4055],[3948019.8712,3854308.892],[3948013.3039,3854308.3119],[3947963.582,3854302.2476],[3947901.5051,3854295.0955],[3947913.7684,3854266.1424],[3947922.6755,3854245.1737],[3947930.6759,3854225.1018],[3947944.2662,3854169.981],[3947948.1947,3854153.3482],[3947926.763,3854058.2849],[3947919.4328,3854026.2499],[3947910.0779,3853985.2749],[3947870.8604,3853966.2143],[3947847.426,3853954.6435],[3947837.2872,3853949.5996],[3947773.9306,3853918.8205],[3947722.1607,3853931.7685],[3947685.1645,3853941.3258],[3947653.8955,3853949.3782],[3947601.8103,3853962.4011],[3947527.0758,3853981.6657],[3947520.1433,3853983.3225],[3947527.2221,3853996.201],[3947543.6754,3854027.9159],[3947553.5508,3854046.751],[3947577.4935,3854092.238],[3947581.6307,3854100.4275],[3947582.973,3854103.2569],[3947586.255,3854110.6286],[3947590.7725,3854122.6935],[3947594.75,3854133.8652],[3947604.8304,3854160.7505],[3947583.5273,3854171.5366],[3947567.9296,3854179.4762],[3947505.4291,3854211.7563],[3947499.1499,3854215.2006],[3947514.5179,3854242.8188],[3947535.5293,3854280.1885],[3947553.7279,3854312.4216],[3947574.7584,3854349.9405],[3947582.8058,3854364.3824],[3947531.9583,3854368.4571],[3947457.6103,3854379.8194],[3947422.8209,3854382.2146],[3947400.735,3854383.9826],[3947369.4906,3854395.0908],[3947355.2396,3854400.1943],[3947307.9655,3854417.1555],[3947299.8489,3854420.2315],[3947357.2413,3854461.5396],[3947342.9291,3854464.2578],[3947309.7607,3854469.8542],[3947301.7514,3854471.2154],[3947302.6406,3854478.5186],[3947303.6765,3854485.0761],[3947304.0152,3854487.1625],[3947310.4577,3854497.5832],[3947333.3212,3854533.906],[3947343.5752,3854540.4412],[3947355.3323,3854547.2709],[3947368.3326,3854554.3213],[3947385.691,3854561.0629],[3947387.4362,3854561.8041],[3947391.4675,3854564.478],[3947410.7567,3854579.7131],[3947422.8178,3854589.5239],[3947467.5075,3854577.4136],[3947471.2519,3854584.1882],[3947476.4677,3854593.4937],[3947487.0943,3854608.377],[3947492.3581,3854614.477],[3947496.8773,3854619.5351],[3947501.0913,3854628.694],[3947506.8174,3854641.9492],[3947522.7531,3854643.2523],[3947527.5341,3854656.808],[3947528.7109,3854660.2343],[3947530.1656,3854663.5107],[3947534.2177,3854674.8319],[3947536.066,3854679.822],[3947538.2278,3854684.0658],[3947542.9792,3854693.0743],[3947552.2029,3854710.6448],[3947553.883,3854715.1135],[3947558.4397,3854727.9989],[3947562.6431,3854740.4379],[3947567.5377,3854754.9625],[3947575.0297,3854762.0262],[3947580.0668,3854766.4122],[3947581.0705,3854767.3043],[3947582.7259,3854769.1639],[3947597.0543,3854796.0403],[3947602.681,3854806.4632],[3947615.1477,3854815.0802],[3947618.6211,3854824.7628],[3947621.8326,3854833.5515],[3947633.1163,3854828.5293],[3947657.1093,3854817.3632],[3947684.0663,3854804.7734],[3947694.7567,3854799.8272],[3947699.1847,3854797.8036],[3947712.6099,3854788.6015],[3947722.9798,3854781.5687],[3947735.0159,3854773.2645],[3947738.6088,3854771.0193],[3947752.6854,3854762.7847],[3947762.2428,3854757.2448],[3947763.2615,3854756.7205],[3947767.5229,3854754.7718],[3947782.3666,3854749.2935],[3947788.1483,3854747.1174],[3947803.0288,3854741.4899],[3947809.4479,3854734.4668],[3947811.4344,3854727.6036],[3947815.7201,3854712.8329],[3947803.2372,3854705.1853],[3947795.3238,3854700.2847],[3947780.279,3854699.278],[3947776.2302,3854697.1261],[3947770.585,3854694.3818],[3947766.9636,3854692.527],[3947759.1687,3854690.6079],[3947753.8797,3854689.4281],[3947752.5432,3854688.9841],[3947736.1875,3854682.8369],[3947708.4592,3854667.9211],[3947706.0632,3854666.5851],[3947698.1875,3854661.908],[3947697.0358,3854661.1654],[3947676.358,3854647.1268],[3947665.0428,3854639.1035],[3947651.5528,3854629.0728],[3947649.6387,3854627.5865],[3947647.0468,3854621.9274],[3947636.8288,3854615.0196],[3947619.9218,3854603.2827],[3947594.7293,3854586.0496],[3947603.9542,3854581.1071],[3947598.363,3854554.6571],[3947594.7432,3854538.0423],[3947585.5222,3854529.1939],[3947576.1071,3854532.1987],[3947574.5134,3854532.7244],[3947542.7839,3854542.7907],[3947523.0833,3854549.3241],[3947508.9668,3854540.9348],[3947540.6735,3854521.4014],[3947551.887,3854518.1687],[3947565.7506,3854513.9604],[3947587.9917,3854507.2717],[3947610.6217,3854500.3583],[3947617.9062,3854498.3279],[3947621.532,3854479.0864],[3947624.673,3854458.7281]]]]},"geometry_name":"shape","properties":{"objectid":10,"gush_num":15369,"gush_suffix":null,"sub_gush_id":4505,"status":6,"status_text":"מוסדר","locality_id":306,"locality_name":"שדמות דבורה","reg_mun_id":3,"reg_mun_name":"הגליל התחתון","county_id":22,"county_name":"כנרת","region_id":2,"region_name":"הצפון","wp":10003,"is_anality":0,"anality_date":null,"gushid":"15369-","gush_type":1,"shape_length":4057.01036135796,"shape_area":248286.914215645},"bbox":[3947299.8489,3853918.8205,3948214.9992,3854833.5515]}],"totalFeatures":18541,"numberMatched":18541,"numberReturned":10,"timeStamp":"2025-07-01T06:32:36.832Z","crs":{"type":"name","properties":{"name":"urn:ogc:def:crs:EPSG::3857"}},"bbox":[3906923.3374,3728573.1459,3960964.9447,3897913.9593]}